*******************************************************************************
 Revised: July 31, 2013                  Sun                                 10

 PHYSICAL PROPERTIES (updated 2024-Oct-30):
  GM, km^3/s^2          = 132712440041.93938  Mass, 10^24 kg        = ~1988410
  Vol. mean radius, km  = 695700              Volume, 10^12 km^3    = 1412000
  Solar radius (IAU2015)= 695700 km           Mean density, g/cm^3  = 1.408
  Radius (photosphere)  = 696500 km           Angular diam at 1 AU  = 1919.3"
  Photosphere temp., K  = 6600 (bottom)       Photosphere temp., K  = 4400(top)
  Photospheric depth    = ~500 km             Chromospheric depth   = ~2500 km
  Flatness, f           = 0.00005             Adopted sid. rot. per.= 25.38 d
  Surface gravity       =  274.0 m/s^2        Escape speed, km/s    =  617.7
  Pole (RA,DEC), deg.   = (286.13, 63.87)     Obliquity to ecliptic = 7.25 deg.
  Solar constant (1 AU) = 1367.6 W/m^2        Luminosity, 10^24 J/s = 382.8
  Mass-energy conv rate = 4.260 x 10^9 kg/s   Effective temp, K     = 5772
  Sunspot cycle         = 11.4 yr             Cycle 24 sunspot min. = 2008 A.D.

  Motion relative to nearby stars = apex : R.A.= 271 deg.; DEC.= +30 deg.
                                    speed: 19.4 km/s (0.0112 au/day)
  Motion relative to 2.73K BB/CBR = apex : l= 264.7 +- 0.8; b= 48.2 +- 0.5 deg.
                                    speed: 369 +-11 km/s
*******************************************************************************


*******************************************************************************
Ephemeris / WWW_USER Mon Dec 30 22:16:48 2024 Pasadena, USA      / Horizons    
*******************************************************************************
Target body name: Sun (10)                        {source: DE441}
Center body name: Earth (399)                     {source: DE441}
Center-site name: (user defined site below)
*******************************************************************************
Start time      : A.D. 2024-Apr-08 12:00:00.0000 UT-05:00
Stop  time      : A.D. 2024-Apr-08 16:00:00.0000 UT-05:00
Step-size       : 2000 steps
*******************************************************************************
Target pole/equ : IAU_SUN                         {East-longitude positive}
Target radii    : 695700.0, 695700.0, 695700.0 km {Equator_a, b, pole_c}       
Center geodetic : 267.5579, 35.0887, .099         {E-lon(deg),Lat(deg),Alt(km)}
Center cylindric: 267.5579,5224.85733,3645.98031  {E-lon(deg),Dxy(km),Dz(km)}
Center pole/equ : ITRF93                          {East-longitude positive}
Center radii    : 6378.137, 6378.137, 6356.752 km {Equator_a, b, pole_c}       
Target primary  : Sun
Vis. interferer : MOON (R_eq= 1737.400) km        {source: DE441}
Rel. light bend : Sun                             {source: DE441}
Rel. lght bnd GM: 1.3271E+11 km^3/s^2                                          
Atmos refraction: NO (AIRLESS)
RA format       : HMS
Time format     : CAL 
Calendar mode   : Mixed Julian/Gregorian
Time zone       : UT-05:00
RTS-only print  : NO       
EOP file        : eop.241230.p250328                                           
EOP coverage    : DATA-BASED 1962-JAN-20 TO 2024-DEC-30. PREDICTS-> 2025-MAR-27
Units conversion: 1 au= 149597870.700 km, c= 299792.458 km/s, 1 day= 86400.0 s 
Table cut-offs 1: Elevation (-90.0deg=NO ),Airmass (>38.000=NO), Daylight (NO )
Table cut-offs 2: Solar elongation (  0.0,180.0=NO ),Local Hour Angle( 0.0=NO )
Table cut-offs 3: RA/DEC angular rate (     0.0=NO )                           
****************************************************************************************************************************************************************************************************************
 Date_(ZONE)_HR:MN:SC.fff     R.A._____(ICRF)_____DEC    APmag   S-brt  Ang-diam             delta      deldot     S-O-T /r     S-T-O    PsAng   PsAMV  Sky_motion  Sky_mot_PA  RelVel-ANG  Lun_Sky_Brt  sky_SNR
****************************************************************************************************************************************************************************************************************
$$SOE
 2024-Apr-08 14:58:12.000 *m  01 10 37.85 +07 29 22.9  -26.739 -10.590  1915.603  1.00149285438725   0.6632284    0.0000 /?    0.0000    0.000 180.000   2.4307078   67.555006   1.2855439         n.a.     n.a.
 2024-Apr-08 14:58:19.200 *m  01 10 37.87 +07 29 23.0  -26.739 -10.590  1915.603  1.00149288631201   0.6634043    0.0000 /?    0.0000    0.000 180.000   2.4307138   67.555125   1.2858830         n.a.     n.a.
 2024-Apr-08 14:58:26.400 *m  01 10 37.88 +07 29 23.2  -26.739 -10.590  1915.603  1.00149291824525   0.6635801    0.0000 /?    0.0000    0.000 180.000   2.4307197   67.555245   1.2862220         n.a.     n.a.
 2024-Apr-08 14:58:33.600 *m  01 10 37.90 +07 29 23.3  -26.739 -10.590  1915.602  1.00149295018694   0.6637559    0.0000 /?    0.0000    0.000 180.000   2.4307257   67.555364   1.2865608         n.a.     n.a.
 2024-Apr-08 14:58:40.800 *m  01 10 37.92 +07 29 23.4  -26.739 -10.590  1915.602  1.00149298213710   0.6639316    0.0000 /?    0.0000    0.000 180.000   2.4307317   67.555484   1.2868996         n.a.     n.a.
 2024-Apr-08 14:58:48.000 *m  01 10 37.94 +07 29 23.5  -26.739 -10.590  1915.602  1.00149301409571   0.6641073    0.0000 /?    0.0000    0.000 180.000   2.4307377   67.555604   1.2872383         n.a.     n.a.
 2024-Apr-08 14:58:55.200 *m  01 10 37.96 +07 29 23.6  -26.739 -10.590  1915.602  1.00149304606277   0.6642830    0.0000 /?    0.0000    0.000 180.000   2.4307437   67.555724   1.2875769         n.a.     n.a.
 2024-Apr-08 14:59:02.400 *m  01 10 37.98 +07 29 23.7  -26.739 -10.590  1915.602  1.00149307803829   0.6644586    0.0000 /?    0.0000    0.000 180.000   2.4307497   67.555843   1.2879154         n.a.     n.a.
 2024-Apr-08 14:59:09.600 *m  01 10 37.99 +07 29 23.8  -26.739 -10.590  1915.602  1.00149311002226   0.6646341    0.0000 /?    0.0000    0.000 180.000   2.4307557   67.555963   1.2882538         n.a.     n.a.
 2024-Apr-08 14:59:16.800 *m  01 10 38.01 +07 29 23.9  -26.739 -10.590  1915.602  1.00149314201468   0.6648096    0.0000 /?    0.0000    0.000 180.000   2.4307617   67.556083   1.2885920         n.a.     n.a.
 2024-Apr-08 14:59:24.000 *m  01 10 38.03 +07 29 24.1  -26.739 -10.590  1915.602  1.00149317401554   0.6649851    0.0000 /?    0.0000    0.000 180.000   2.4307678   67.556203   1.2889302         n.a.     n.a.
 2024-Apr-08 14:59:31.200 *m  01 10 38.05 +07 29 24.2  -26.739 -10.590  1915.602  1.00149320602485   0.6651605    0.0000 /?    0.0000    0.000 180.000   2.4307738   67.556323   1.2892683         n.a.     n.a.
 2024-Apr-08 14:59:38.400 *m  01 10 38.07 +07 29 24.3  -26.739 -10.590  1915.602  1.00149323804260   0.6653359    0.0000 /?    0.0000    0.000 180.000   2.4307798   67.556444   1.2896063         n.a.     n.a.
 2024-Apr-08 14:59:45.600 *m  01 10 38.08 +07 29 24.4  -26.739 -10.590  1915.602  1.00149327006878   0.6655112    0.0000 /?    0.0000    0.000 180.000   2.4307859   67.556564   1.2899442         n.a.     n.a.
 2024-Apr-08 14:59:52.800 *m  01 10 38.10 +07 29 24.5  -26.739 -10.590  1915.602  1.00149330210341   0.6656865    0.0000 /?    0.0000    0.000 180.000   2.4307920   67.556684   1.2902821         n.a.     n.a.
 2024-Apr-08 15:00:00.000 *m  01 10 38.12 +07 29 24.6  -26.739 -10.590  1915.602  1.00149333414647   0.6658617    0.0000 /?    0.0000    0.000 180.000   2.4307980   67.556804   1.2906198         n.a.     n.a.
 2024-Apr-08 15:00:07.200 *m  01 10 38.14 +07 29 24.7  -26.739 -10.590  1915.602  1.00149336619796   0.6660369    0.0000 /?    0.0000    0.000 180.000   2.4308041   67.556925   1.2909574         n.a.     n.a.
 2024-Apr-08 15:00:14.400 *m  01 10 38.16 +07 29 24.8  -26.739 -10.590  1915.602  1.00149339825788   0.6662120    0.0000 /?    0.0000    0.000 180.000   2.4308102   67.557045   1.2912949         n.a.     n.a.
 2024-Apr-08 15:00:21.600 *m  01 10 38.17 +07 29 24.9  -26.739 -10.590  1915.602  1.00149343032623   0.6663871    0.0000 /?    0.0000    0.000 180.000   2.4308163   67.557166   1.2916323         n.a.     n.a.
 2024-Apr-08 15:00:28.800 *m  01 10 38.19 +07 29 25.1  -26.739 -10.590  1915.601  1.00149346240300   0.6665621    0.0000 /?    0.0000    0.000 180.000   2.4308224   67.557286   1.2919696         n.a.     n.a.
 2024-Apr-08 15:00:36.000 *m  01 10 38.21 +07 29 25.2  -26.739 -10.590  1915.601  1.00149349448820   0.6667371    0.0000 /?    0.0000    0.000 180.000   2.4308285   67.557407   1.2923068         n.a.     n.a.
 2024-Apr-08 15:00:43.200 *m  01 10 38.23 +07 29 25.3  -26.739 -10.590  1915.601  1.00149352658181   0.6669120    0.0000 /?    0.0000    0.000 180.000   2.4308346   67.557527   1.2926440         n.a.     n.a.
 2024-Apr-08 15:00:50.400 *m  01 10 38.25 +07 29 25.4  -26.739 -10.590  1915.601  1.00149355868385   0.6670869    0.0000 /?    0.0000    0.000 180.000   2.4308407   67.557648   1.2929810         n.a.     n.a.
 2024-Apr-08 15:00:57.600 *m  01 10 38.27 +07 29 25.5  -26.739 -10.590  1915.601  1.00149359079430   0.6672618    0.0000 /?    0.0000    0.000 180.000   2.4308468   67.557769   1.2933179         n.a.     n.a.
 2024-Apr-08 15:01:04.800 *m  01 10 38.28 +07 29 25.6  -26.739 -10.590  1915.601  1.00149362291317   0.6674366    0.0000 /?    0.0000    0.000 180.000   2.4308530   67.557890   1.2936547         n.a.     n.a.
 2024-Apr-08 15:01:12.000 *m  01 10 38.30 +07 29 25.7  -26.739 -10.590  1915.601  1.00149365504045   0.6676113    0.0000 /?    0.0000    0.000 180.000   2.4308591   67.558011   1.2939915         n.a.     n.a.
 2024-Apr-08 15:01:19.200 *m  01 10 38.32 +07 29 25.8  -26.739 -10.590  1915.601  1.00149368717614   0.6677860    0.0000 /?    0.0000    0.000 180.000   2.4308652   67.558132   1.2943281         n.a.     n.a.
